STARLINK-30764          
1 58170U 23166W   23313.58334491 -.00866086  00000+0 -50558-2 0  9998
2 58170  53.0562 205.4988 0000696  91.7132 142.0828 15.79948661  3019
STARLINK-30752          
1 58171U 23166X   23313.58334491 -.00867568  00000+0 -50678-2 0  9998
2 58171  53.0563 205.4970 0000603 108.6767 126.0161 15.79938922  3013
PARUS                   
1 58173U 98067VZ  23313.40470195  .02841004  00000+0  11084-1 0  9999
2 58173  51.6272 327.8988 0013429  86.8755 273.3784 15.83276250  2298
STARLINK-30753          
1 58175U 23167A   23313.58334491 -.00834952  00000+0 -40707-2 0  9996
2 58175  43.0051 106.7902 0001723 253.4564 269.7351 15.83461362  2697
STARLINK-30824          
1 58176U 23167B   23313.58334491 -.00838673  00000+0 -40909-2 0  9995
2 58176  43.0049 106.7871 0001723 256.0135 268.3459 15.83459930  2695
STARLINK-30791          
1 58177U 23167C   23313.58334491 -.00845731  00000+0 -41283-2 0  9995
2 58177  43.0048 106.7844 0001526 262.1933 263.2997 15.83463988  2699
STARLINK-30810          
1 58178U 23167D   23313.58334491 -.00855947  00000+0 -41834-2 0  9998
2 58178  43.0048 106.7805 0001597 277.1782 249.8186 15.83462172  2697
STARLINK-30819          
1 58179U 23167E   23313.58334491 -.00857789  00000+0 -41913-2 0  9993
2 58179  43.0053 106.7793 0001660 275.7134 251.8826 15.83471571  2738
STARLINK-30806          
1 58180U 23167F   23313.58334491 -.00863485  00000+0 -42191-2 0  9994
2 58180  43.0047 106.7751 0001679 281.7505 247.3458 15.83485481  2697
STARLINK-30821          
1 58181U 23167G   23313.58334491 -.00853063  00000+0 -41654-2 0  9999
2 58181  43.0048 106.7777 0001266 281.3589 246.7264 15.83477752  2697
STARLINK-30778          
1 58182U 23167H   23313.58334491 -.00857540  00000+0 -41598-2 0  9991
2 58182  43.0048 106.7720 0000939 295.3678 234.9240 15.83628752  2697
STARLINK-30809          
1 58183U 23167J   23313.58334491 -.00863188  00000+0 -42155-2 0  9997
2 58183  43.0048 106.7714 0001305 262.4040 268.0853 15.83498902  2697
STARLINK-30801          
1 58184U 23167K   23313.58334491 -.00872719  00000+0 -42677-2 0  9997
2 58184  43.0046 106.7670 0001465 276.5990 255.6099 15.83493110  2694
STARLINK-30793          
1 58185U 23167L   23313.58334491 -.00861817  00000+0 -42058-2 0  9998
2 58185  43.0050 106.7656 0002879 249.6104 283.2178 15.83494040  2690
STARLINK-30755          
1 58186U 23167M   23313.58334491 -.00873476  00000+0 -42696-2 0  9991
2 58186  43.0046 106.7634 0001359 280.0915 253.5783 15.83504787  2695
STARLINK-30760          
1 58187U 23167N   23313.58334491 -.00874229  00000+0 -42722-2 0  9999
2 58187  43.0044 106.7617 0001321 277.9360 256.3527 15.83512253  2743
STARLINK-30826          
1 58188U 23167P   23313.58334491 -.00783510  00000+0 -38038-2 0  9997
2 58188  43.0048 106.7552 0001735 286.9336 249.9636 15.83424364  2696
STARLINK-30796          
1 58189U 23167Q   23313.58334491 -.00883228  00000+0 -43208-2 0  9990
2 58189  43.0043 106.7576 0001537 284.2433 251.5373 15.83509941  2699
STARLINK-30820          
1 58190U 23167R   23313.58334491 -.00834163  00000+0 -40646-2 0  9999
2 58190  43.0043 106.7522 0001645 263.8098 274.1534 15.83471730  2742
STARLINK-30785          
1 58191U 23167S   23313.58334491 -.00905407  00000+0 -44384-2 0  9993
2 58191  43.0042 106.7465 0001718 262.5078 277.7173 15.83519861  2693
STARLINK-30807          
1 58192U 23167T   23313.58334491 -.00894725  00000+0 -43809-2 0  9995
2 58192  43.0046 106.7502 0001599 264.2834 274.5714 15.83519218  2744
STARLINK-30822          
1 58193U 23167U   23313.58334491 -.00910189  00000+0 -44653-2 0  9997
2 58193  43.0043 106.7434 0001703 264.4879 277.1064 15.83515650  2747
STARLINK-30830          
1 58194U 23167V   23313.58334491 -.00906576  00000+0 -44468-2 0  9997
2 58194  43.0047 106.7411 0001172 278.1627 264.2219 15.83515567  2746
STARLINK-30827          
1 58195U 23167W   23313.58334491 -.00913214  00000+0 -44796-2 0  9999
2 58195  43.0044 106.7395 0001594 270.7114 272.3338 15.83526725  2742
STARLINK-30798          
1 58196U 23167X   23313.58334491 -.00919862  00000+0 -45159-2 0  9999
2 58196  43.0044 106.7364 0001695 268.5465 275.7685 15.83525057  2698
STARLINK-30762          
1 58197U 23167Y   23313.58334491 -.00915367  00000+0 -44918-2 0  9998
2 58197  43.0043 106.7348 0001180 277.3746 267.5803 15.83528469  2690
SZ-16 MODULE            
1 58198U 23077G   23313.50774990  .00040707  00000+0  44705-3 0  9993
2 58198  41.4843 351.0729 0007431 125.3721 234.7813 15.62398650  1453
TIANHUI 5A              
1 58199U 23168A   23313.67734590  .00001043  00000+0  12285-3 0  9993
2 58199  97.8283 318.7003 0000308 228.4920 131.6269 14.86871692  1293
